NORAD_CAT_ID,OBJECT_NAME,OBJECT_TYPE,EPOCH,MEAN_MOTION,ECCENTRICITY,INCLINATION,RA_OF_ASC_NODE,ARG_OF_PERICENTER,MEAN_ANOMALY,BSTAR,MEAN_MOTION_DOT,MEAN_MOTION_DDOT,TLE_LINE0,TLE_LINE1,TLE_LINE2,SEMIMAJOR_AXIS,PERIOD,APOGEE,PERIGEE,DECAYED
55962.0,STARLINK-5906,PAYLOAD,2024-06-01 21:06:50,14.98330938,0.0002648,70.0005,92.9107,267.9906,92.095,-4.6007e-05,-6.42e-06,0.0,0 STARLINK-5906,1 55962U 23037BA  24153.87975406 -.00000642  00000-0 -46007-4 0  9998,2 55962  70.0005  92.9107 0002648 267.9906  92.0950 14.98330938 68072,6950.19,96.107,573.895,570.215,0.0
55962.0,STARLINK-5906,PAYLOAD,2024-06-02 13:08:11,14.98333122,0.000286,70.0002,91.226,270.7539,89.3293,-0.00017823,-2.219e-05,0.0,0 STARLINK-5906,1 55962U 23037BA  24154.54735546 -.00002219  00000-0 -17823-3 0  9997,2 55962  70.0002  91.2260 0002860 270.7539  89.3293 14.98333122 67831,6950.183,96.107,574.036,570.06,0.0
55962.0,STARLINK-5906,PAYLOAD,2024-06-02 19:32:44,14.98324836,0.0002682,70.0001,90.5537,270.7169,89.3683,-5.6316e-05,-7.65e-06,0.0,0 STARLINK-5906,1 55962U 23037BA  24154.81439888 -.00000765  00000-0 -56316-4 0  9992,2 55962  70.0001  90.5537 0002682 270.7169  89.3683 14.98324836 67879,6950.209,96.107,573.938,570.21,0.0
55962.0,STARLINK-5906,PAYLOAD,2024-06-03 05:09:32,14.98324133,0.0002669,70.0005,89.5437,266.9961,93.0893,-3.6696e-05,-5.31e-06,0.0,0 STARLINK-5906,1 55962U 23037BA  24155.21495970 -.00000531  00000-0 -36696-4 0  9991,2 55962  70.0005  89.5437 0002669 266.9961  93.0893 14.98324133 68272,6950.211,96.107,573.931,570.221,0.0
55962.0,STARLINK-5906,PAYLOAD,2024-06-03 13:10:12,14.98330395,0.0002822,70.0005,88.7014,271.039,89.0446,-2.8479e-05,-4.33e-06,0.0,0 STARLINK-5906,1 55962U 23037BA  24155.54875590 -.00000433  00000-0 -28479-4 0  9998,2 55962  70.0005  88.7014 0002822 271.0390  89.0446 14.98330395 67981,6950.192,96.107,574.018,570.095,0.0
55962.0,STARLINK-5906,PAYLOAD,2024-06-04 03:35:24,14.98336282,0.0002925,70.0,87.1866,268.5091,91.5733,8.4559e-05,9.16e-06,0.0,0 STARLINK-5906,1 55962U 23037BA  24156.14958824  .00000916  00000-0  84559-4 0  9992,2 55962  70.0000  87.1866 0002925 268.5091  91.5733 14.98336282 68414,6950.173,96.107,574.071,570.006,0.0
55962.0,STARLINK-5906,PAYLOAD,2024-06-04 13:12:13,14.98330906,0.0002871,70.0002,86.1764,267.0341,93.0489,8.3546e-05,9.04e-06,0.0,0 STARLINK-5906,1 55962U 23037BA  24156.55015055  .00000904  00000-0  83546-4 0  9999,2 55962  70.0002  86.1764 0002871 267.0341  93.0489 14.98330906 68135,6950.19,96.107,574.05,570.06,0.0
55962.0,STARLINK-5906,PAYLOAD,2024-06-05 05:13:33,14.98330882,0.0002888,70.0006,84.4937,271.1129,88.9699,4.4095e-05,4.33e-06,0.0,0 STARLINK-5906,1 55962U 23037BA  24157.21775149  .00000433  00000-0  44095-4 0  9993,2 55962  70.0006  84.4937 0002888 271.1129  88.9699 14.98330882 68577,6950.19,96.107,574.062,570.048,0.0
55962.0,STARLINK-5906,PAYLOAD,2024-06-06 05:15:34,14.98341477,0.0002597,70.0016,81.9688,271.2758,88.8104,-0.00019335,-2.4e-05,0.0,0 STARLINK-5906,1 55962U 23037BA  24158.21915164 -.00002400  00000-0 -19335-3 0  9993,2 55962  70.0016  81.9688 0002597 271.2758  88.8104 14.98341477 68728,6950.157,96.106,573.827,570.217,0.0
55962.0,STARLINK-5906,PAYLOAD,2024-06-06 11:40:06,14.98353662,0.0002696,70.0016,81.2956,274.5182,85.5669,-0.00045708,-5.546e-05,0.0,0 STARLINK-5906,1 55962U 23037BA  24158.48618809 -.00005546  00000-0 -45708-3 0  9995,2 55962  70.0016  81.2956 0002696 274.5182  85.5669 14.98353662 68422,6950.12,96.105,573.858,570.111,0.0
55962.0,STARLINK-5906,PAYLOAD,2024-06-07 22:55:04,14.98361768,0.0002204,70.0028,77.5915,287.582,72.5098,-0.00050815,-6.155e-05,0.0,0 STARLINK-5906,1 55962U 23037BA  24159.95491510 -.00006155  00000-0 -50815-3 0  9998,2 55962  70.0028  77.5915 0002204 287.5820  72.5098 14.98361768 68648,6950.095,96.105,573.491,570.428,0.0
55962.0,STARLINK-5906,PAYLOAD,2024-06-08 05:19:36,14.98339478,0.0002446,70.0016,76.919,265.6335,94.4545,-0.00010251,-1.316e-05,0.0,0 STARLINK-5906,1 55962U 23037BA  24160.22195009 -.00001316  00000-0 -10251-3 0  9998,2 55962  70.0016  76.9190 0002446 265.6335  94.4545 14.98339478 69025,6950.164,96.106,573.729,570.329,0.0
55962.0,STARLINK-5906,PAYLOAD,2024-06-08 11:44:08,14.98387743,0.0002601,70.0038,76.2426,288.5364,71.5512,-0.0011402,-0.00013691,0.0,0 STARLINK-5906,1 55962U 23037BA  24160.48898353 -.00013691  00000-0 -11402-2 0  9995,2 55962  70.0038  76.2426 0002601 288.5364  71.5512 14.98387743 68727,6950.014,96.103,573.687,570.072,0.0
55962.0,STARLINK-5906,PAYLOAD,2024-06-08 22:57:05,14.98326381,0.0002338,70.0016,75.0646,281.6058,78.4839,-1.7938e-05,-3.07e-06,0.0,0 STARLINK-5906,1 55962U 23037BA  24160.95631634 -.00000307  00000-0 -17938-4 0  9996,2 55962  70.0016  75.0646 0002338 281.6058  78.4839 14.98326381 68791,6950.204,96.107,573.694,570.444,0.0
55962.0,STARLINK-5906,PAYLOAD,2024-06-09 03:45:29,14.98330278,0.000274,70.0007,74.5628,265.1113,94.9733,3.1988e-05,2.89e-06,0.0,0 STARLINK-5906,1 55962U 23037BA  24161.15659246  .00000289  00000-0  31988-4 0  9996,2 55962  70.0007  74.5628 0002740 265.1113  94.9733 14.98330278 69169,6950.192,96.107,573.961,570.153,0.0
55962.0,STARLINK-5906,PAYLOAD,2024-06-09 22:59:06,14.98329403,0.0002764,70.0008,72.5426,263.126,96.9585,-7.4552e-05,-9.82e-06,0.0,0 STARLINK-5906,1 55962U 23037BA  24161.95771716 -.00000982  00000-0 -74552-4 0  9997,2 55962  70.0008  72.5426 0002764 263.1260  96.9585 14.98329403 68941,6950.195,96.107,573.981,570.139,0.0
55962.0,STARLINK-5906,PAYLOAD,2024-06-10 03:47:30,14.98332796,0.0002869,70.0008,72.039,268.423,91.6601,-4.1186e-05,-5.84e-06,0.0,0 STARLINK-5906,1 55962U 23037BA  24162.15799426 -.00000584  00000-0 -41186-4 0  9993,2 55962  70.0008  72.0390 0002869 268.4230  91.6601 14.98332796 69319,6950.184,96.107,574.043,570.055,0.0
55962.0,STARLINK-5906,PAYLOAD,2024-06-10 11:48:11,14.98332844,0.0002892,70.0008,71.1954,270.8544,89.2284,-5.4389e-05,-7.42e-06,0.0,0 STARLINK-5906,1 55962U 23037BA  24162.49179441 -.00000742  00000-0 -54389-4 0  9994,2 55962  70.0008  71.1954 0002892 270.8544  89.2284 14.98332844 69028,6950.184,96.107,574.059,570.039,0.0
55962.0,STARLINK-5906,PAYLOAD,2024-06-10 23:01:07,14.98327878,0.0002997,70.0004,70.0174,269.775,90.3065,4.8706e-05,4.88e-06,0.0,0 STARLINK-5906,1 55962U 23037BA  24162.95911485  .00000488  00000-0  48706-4 0  9998,2 55962  70.0004  70.0174 0002997 269.7750  90.3065 14.98327878 69096,6950.199,96.107,574.147,569.981,0.0
55962.0,STARLINK-5906,PAYLOAD,2024-06-11 03:49:31,14.98340192,0.0002909,70.0003,69.5127,267.202,92.8806,-2.2e-05,-3.56e-06,0.0,0 STARLINK-5906,1 55962U 23037BA  24163.15938928 -.00000356  00000-0 -22000-4 0  9997,2 55962  70.0003  69.5127 0002909 267.2020  92.8806 14.98340192 69467,6950.161,96.106,574.048,570.005,0.0
55962.0,STARLINK-5906,PAYLOAD,2024-06-12 03:51:31,14.98340019,0.0002963,70.0004,66.9876,269.5297,90.5523,0.00011356,1.263e-05,0.0,0 STARLINK-5906,1 55962U 23037BA  24164.16078240  .00001263  00000-0  11356-3 0  9998,2 55962  70.0004  66.9876 0002963 269.5297  90.5523 14.98340019 69617,6950.162,96.106,574.086,569.968,0.0
55962.0,STARLINK-5906,PAYLOAD,2024-06-12 21:29:01,14.98327255,0.0002656,70.001,65.1374,273.1893,86.8962,-4.0652e-05,-5.78e-06,0.0,0 STARLINK-5906,1 55962U 23037BA  24164.89515495 -.00000578  00000-0 -40652-4 0  9998,2 55962  70.0010  65.1374 0002656 273.1893  86.8962 14.98327255 69724,6950.201,96.107,573.912,570.22,0.0
55962.0,STARLINK-5906,PAYLOAD,2024-06-13 10:18:06,14.98318483,0.0002617,70.0013,63.793,260.1234,99.9629,0.0001251,1.4e-05,0.0,0 STARLINK-5906,1 55962U 23037BA  24165.42923784  .00001400  00000-0  12510-3 0  9996,2 55962  70.0013  63.7930 0002617 260.1234  99.9629 14.98318483 69460,6950.229,96.108,573.912,570.275,0.0
55962.0,STARLINK-5906,PAYLOAD,2024-06-13 21:31:01,14.98335775,0.000284,70.0006,62.6133,267.314,92.7694,-2.7559e-05,-4.22e-06,0.0,0 STARLINK-5906,1 55962U 23037BA  24165.89654814 -.00000422  00000-0 -27559-4 0  9997,2 55962  70.0006  62.6133 0002840 267.3140  92.7694 14.98335775 69879,6950.175,96.107,574.014,570.066,0.0
55962.0,STARLINK-5906,PAYLOAD,2024-06-14 10:20:06,14.9832429,0.0002798,70.0008,61.266,250.8738,109.2118,3.5593e-05,3.32e-06,0.0,0 STARLINK-5906,1 55962U 23037BA  24166.43063229  .00000332  00000-0  35593-4 0  9997,2 55962  70.0008  61.2660 0002798 250.8738 109.2118 14.98324290 69610,6950.211,96.107,574.02,570.131,0.0
55962.0,STARLINK-5906,PAYLOAD,2024-06-14 21:33:03,14.98314945,0.0002944,70.0003,60.0871,271.3059,88.7763,0.0002233,2.571e-05,0.0,0 STARLINK-5906,1 55962U 23037BA  24166.89795471  .00002571  00000-0  22330-3 0  9999,2 55962  70.0003  60.0871 0002944 271.3059  88.7763 14.98314945 69683,6950.239,96.108,574.151,570.058,0.0
55962.0,STARLINK-5906,PAYLOAD,2024-06-15 10:22:07,14.98330019,0.0003061,70.0001,58.7395,271.6103,88.4706,5.8929e-06,-2.3e-07,0.0,0 STARLINK-5906,1 55962U 23037BA  24167.43202996 -.00000023  00000-0  58929-5 0  9991,2 55962  70.0001  58.7395 0003061 271.6103  88.4706 14.98330019 69763,6950.193,96.107,574.185,569.93,0.0
55962.0,STARLINK-5906,PAYLOAD,2024-06-15 19:58:55,14.98326484,0.0003113,70.0001,57.7295,270.8868,89.1935,2.8121e-05,2.43e-06,0.0,0 STARLINK-5906,1 55962U 23037BA  24167.83259143  .00000243  00000-0  28121-4 0  9994,2 55962  70.0001  57.7295 0003113 270.8868  89.1935 14.98326484 69828,6950.204,96.107,574.232,569.905,0.0
55962.0,STARLINK-5906,PAYLOAD,2024-06-16 10:24:08,14.98332557,0.0002963,70.0005,56.2141,273.0414,87.0406,-5.3527e-05,-7.32e-06,0.0,0 STARLINK-5906,1 55962U 23037BA  24168.43342925 -.00000732  00000-0 -53527-4 0  9995,2 55962  70.0005  56.2141 0002963 273.0414  87.0406 14.98332557 69918,6950.185,96.107,574.109,569.991,0.0
55962.0,STARLINK-5906,PAYLOAD,2024-06-16 23:13:12,14.98325265,0.0003029,70.0003,54.8689,271.5853,88.4959,6.7074e-05,7.07e-06,0.0,0 STARLINK-5906,1 55962U 23037BA  24168.96751092  .00000707  00000-0  67074-4 0  9994,2 55962  70.0003  54.8689 0003029 271.5853  88.4959 14.98325265 69995,6950.208,96.107,574.178,569.967,0.0
